IRIDIUM 119             
1 42959U 17061E   24233.11642043  .00000104  00000+0  30232-4 0  9997
2 42959  86.3977 303.5999 0002296  87.6047 272.5412 14.34213703359345
IRIDIUM 107             
1 42960U 17061F   24232.43776192  .00000207  00000+0  66969-4 0  9996
2 42960  86.3977 303.9006 0002066  88.7906 271.3526 14.34211538359258
IRIDIUM 132             
1 42961U 17061G   24233.69993644  .00000797  00000+0  27766-3 0  9994
2 42961  86.3971 303.3570 0001929  88.4427 271.6990 14.34215047359432
IRIDIUM 136             
1 42962U 17061H   24233.24328346  .00000050  00000+0  10671-4 0  9997
2 42962  86.3970 303.5508 0002275  86.8683 273.2773 14.34215139359389
IRIDIUM 139             
1 42963U 17061J   24233.59846359  .00000788  00000+0  27444-3 0  9998
2 42963  86.3973 303.4542 0002097  83.3006 276.8428 14.34217927359443
IRIDIUM 125             
1 42964U 17061K   24233.72531058  .00000716  00000+0  24859-3 0  9999
2 42964  86.3976 303.4505 0002510  81.2158 278.9322 14.34218080359471
IRIDIUM 135             
1 43070U 17083A   24233.55989802  .00000011  00000+0 -30639-5 0  9991
2 43070  86.3932 240.1511 0002074  98.3546 261.7885 14.34216815348747
IRIDIUM 138             
1 43071U 17083B   24233.51550271  .00000333  00000+0  11194-3 0  9991
2 43071  86.3919 239.8789 0002657  85.8766 274.2734 14.34218626348729
